NORAD_CAT_ID,OBJECT_NAME,OBJECT_TYPE,EPOCH,MEAN_MOTION,ECCENTRICITY,INCLINATION,RA_OF_ASC_NODE,ARG_OF_PERICENTER,MEAN_ANOMALY,BSTAR,MEAN_MOTION_DOT,MEAN_MOTION_DDOT,TLE_LINE0,TLE_LINE1,TLE_LINE2,SEMIMAJOR_AXIS,PERIOD,APOGEE,PERIGEE,DECAYED
55658.0,STARLINK-5307,PAYLOAD,2023-02-22 16:00:00,15.94680707,0.0037339,69.9999,136.7823,163.3379,237.7744,-0.0026605,-0.01089015,0.00036356,0 STARLINK-5307,1 55658U 23021AG  23053.66667824 -.01089015  36356-3 -26605-2 0  9998,2 55658  69.9999 136.7823 0037339 163.3379 237.7744 15.94680707  1304,6667.341,90.3,314.101,264.311,0.0
55658.0,STARLINK-5307,PAYLOAD,2023-02-22 22:00:00,15.94182152,0.0033967,69.9995,136.0531,163.4556,232.165,-0.0029081,-0.01143949,0.00039608,0 STARLINK-5307,1 55658U 23021AG  23053.91667824 -.01143949  39608-3 -29081-2 0  9997,2 55658  69.9995 136.0531 0033967 163.4556 232.1650 15.94182152  1306,6668.731,90.328,313.248,267.945,0.0
55658.0,STARLINK-5307,PAYLOAD,2023-02-23 08:00:01,15.93270178,0.002952,69.9999,134.8402,165.3242,100.121,-0.0029712,-0.01097754,0.00036367,0 STARLINK-5307,1 55658U 23021AG  23054.33334491 -.01097754  36367-3 -29712-2 0  9997,2 55658  69.9999 134.8402 0029520 165.3242 100.1210 15.93270178  1408,6671.276,90.38,312.834,273.447,0.0
55658.0,STARLINK-5307,PAYLOAD,2023-02-23 14:00:01,15.92749929,0.0027038,69.9999,134.1125,166.3346,92.3563,-0.0031173,-0.01112607,0.00037085,0 STARLINK-5307,1 55658U 23021AG  23054.58334491 -.01112607  37085-3 -31173-2 0  9991,2 55658  69.9999 134.1125 0027038 166.3346  92.3563 15.92749929  1307,6672.728,90.41,312.635,276.552,0.0
55658.0,STARLINK-5307,PAYLOAD,2023-02-23 16:00:00,15.92566929,0.0026163,70.0,133.8704,167.1098,209.2285,-0.0031249,-0.01102216,0.00036381,0 STARLINK-5307,1 55658U 23021AG  23054.66667824 -.01102216  36381-3 -31249-2 0  9996,2 55658  70.0000 133.8704 0026163 167.1098 209.2285 15.92566929  1456,6673.24,90.42,312.564,277.645,0.0
55658.0,STARLINK-5307,PAYLOAD,2023-02-23 22:00:00,15.92072291,0.0023321,69.9997,133.1435,168.1887,200.7491,-0.0034107,-0.01163818,0.00040024,0 STARLINK-5307,1 55658U 23021AG  23054.91667824 -.01163818  40024-3 -34107-2 0  9994,2 55658  69.9997 133.1435 0023321 168.1887 200.7491 15.92072291  1305,6674.622,90.448,312.053,280.921,0.0
55658.0,STARLINK-5307,PAYLOAD,2023-02-24 02:00:01,15.91673556,0.0022188,69.9999,132.6598,169.3832,74.3865,-0.0032468,-0.01083157,0.00034914,0 STARLINK-5307,1 55658U 23021AG  23055.08334491 -.01083157  34914-3 -32468-2 0  9990,2 55658  69.9999 132.6598 0022188 169.3832  74.3865 15.91673556  1528,6675.736,90.471,312.413,282.789,0.0
55658.0,STARLINK-5307,PAYLOAD,2023-02-24 08:00:01,15.91148686,0.0019345,70.0001,131.9344,172.6776,62.9102,-0.0033813,-0.01091724,0.00035242,0 STARLINK-5307,1 55658U 23021AG  23055.33334491 -.01091724  35242-3 -33813-2 0  9997,2 55658  70.0001 131.9344 0019345 172.6776  62.9102 15.91148686  1563,6677.204,90.501,311.986,286.152,0.0
55658.0,STARLINK-5307,PAYLOAD,2023-02-24 14:00:01,15.90631534,0.0017111,69.9999,131.2092,175.4459,51.4797,-0.0035507,-0.01112062,0.00036279,0 STARLINK-5307,1 55658U 23021AG  23055.58334491 -.01112062  36279-3 -35507-2 0  9996,2 55658  69.9999 131.2092 0017111 175.4459  51.4797 15.90631534  1300,6678.652,90.53,311.944,289.089,0.0
55658.0,STARLINK-5307,PAYLOAD,2023-02-24 18:00:00,15.90255539,0.0015749,69.9997,130.7267,178.3566,282.5437,-0.0034973,-0.01072679,0.00033816,0 STARLINK-5307,1 55658U 23021AG  23055.75001157 -.01072679  33816-3 -34973-2 0  9994,2 55658  69.9997 130.7267 0015749 178.3566 282.5437 15.90255539  1633,6679.704,90.551,312.089,291.049,0.0
55658.0,STARLINK-5307,PAYLOAD,2023-02-24 22:00:00,15.89944224,0.0013889,69.9997,130.2434,182.6558,151.9807,-0.0038313,-0.01153147,0.00038534,0 STARLINK-5307,1 55658U 23021AG  23055.91667824 -.01153147  38534-3 -38313-2 0  9995,2 55658  69.9997 130.2434 0013889 182.6558 151.9807 15.89944224  1304,6680.576,90.569,311.72,293.162,0.0
55658.0,STARLINK-5307,PAYLOAD,2023-02-25 02:00:01,15.89547091,0.0012813,70.0001,129.7611,186.3847,21.8097,-0.0036272,-0.01069347,0.00033391,0 STARLINK-5307,1 55658U 23021AG  23056.08334491 -.01069347  33391-3 -36272-2 0  9991,2 55658  70.0001 129.7611 0012813 186.3847  21.8097 15.89547091  1689,6681.689,90.592,312.115,294.993,0.0
55658.0,STARLINK-5307,PAYLOAD,2023-02-25 08:00:01,15.89018878,0.001072,70.0001,129.0379,196.2064,1.9014,-0.0037457,-0.01073033,0.00033432,0 STARLINK-5307,1 55658U 23021AG  23056.33334491 -.01073033  33432-3 -37457-2 0  9998,2 55658  70.0001 129.0379 0010720 196.2064   1.9014 15.89018878  1728,6683.169,90.622,312.199,297.87,0.0
55658.0,STARLINK-5307,PAYLOAD,2023-02-25 14:00:01,15.88499017,0.0009489,69.9997,128.3153,206.4406,341.0988,-0.0039023,-0.01088001,0.00034129,0 STARLINK-5307,1 55658U 23021AG  23056.58334491 -.01088001  34129-3 -39023-2 0  9991,2 55658  69.9997 128.3153 0009489 206.4406 341.0988 15.88499017  1764,6684.627,90.652,312.835,300.149,0.0
55658.0,STARLINK-5307,PAYLOAD,2023-02-25 22:00:00,15.87828101,0.0008312,69.9995,127.3518,227.0205,65.6806,-0.004301,-0.01038634,0.0,0 STARLINK-5307,1 55658U 23021AG  23056.91667824 -.01038634  00000-0 -43010-2 0  9993,2 55658  69.9995 127.3518 0008312 227.0205  65.6806 15.87828101  1819,6686.51,90.69,313.933,302.817,0.0
55658.0,STARLINK-5307,PAYLOAD,2023-02-26 06:00:00,15.87116776,0.0008708,69.9994,126.3905,248.127,148.9026,-0.0044147,-0.01030447,0.0,0 STARLINK-5307,1 55658U 23021AG  23057.25001157 -.01030447  00000-0 -44147-2 0  9998,2 55658  69.9994 126.3905 0008708 248.1270 148.9026 15.87116776  1875,6688.508,90.731,316.197,304.549,0.0
55658.0,STARLINK-5307,PAYLOAD,2023-02-26 14:00:01,15.86400566,0.0009224,69.9996,125.4297,264.3055,236.2061,-0.0044811,-0.01012299,0.0,0 STARLINK-5307,1 55658U 23021AG  23057.58334491 -.01012299  00000-0 -44811-2 0  9997,2 55658  69.9996 125.4297 0009224 264.3055 236.2061 15.86400566  1306,6690.521,90.772,318.557,306.215,0.0
55658.0,STARLINK-5307,PAYLOAD,2023-02-26 22:00:00,15.85664436,0.0007884,69.9995,124.4701,269.6322,333.5265,-0.0044497,-0.00972558,0.0,0 STARLINK-5307,1 55658U 23021AG  23057.91667824 -.00972558  00000-0 -44497-2 0  9995,2 55658  69.9995 124.4701 0007884 269.6322 333.5265 15.85664436  1976,6692.591,90.814,319.733,309.18,0.0
55658.0,STARLINK-5307,PAYLOAD,2023-02-27 14:00:01,15.84270383,0.0006716,69.9999,122.5537,272.2147,173.6585,-0.0049259,-0.01001866,0.0,0 STARLINK-5307,1 55658U 23021AG  23058.58334491 -.01001866  00000-0 -49259-2 0  9997,2 55658  69.9999 122.5537 0006716 272.2147 173.6585 15.84270383  2088,6696.517,90.894,322.879,313.885,0.0
55658.0,STARLINK-5307,PAYLOAD,2023-02-27 20:00:01,15.83732208,0.0004961,69.9998,121.8361,271.4683,159.5549,-0.0049847,-0.00988121,0.0,0 STARLINK-5307,1 55658U 23021AG  23058.83334491 -.00988121  00000-0 -49847-2 0  9995,2 55658  69.9998 121.8361 0004961 271.4683 159.5549 15.83732208  1305,6698.034,90.924,323.222,316.576,0.0
55658.0,STARLINK-5307,PAYLOAD,2023-02-28 14:00:01,15.82134328,0.0003688,70.0006,119.6866,269.7258,113.8801,-0.0052934,-0.00973635,0.0,0 STARLINK-5307,1 55658U 23021AG  23059.58334491 -.00973635  00000-0 -52934-2 0  9993,2 55658  70.0006 119.6866 0003688 269.7258 113.8801 15.82134328  1308,6702.543,91.016,326.88,321.936,0.0
55658.0,STARLINK-5307,PAYLOAD,2023-02-28 16:00:00,15.8195744,0.0003506,69.9998,119.4483,270.0157,228.0571,-0.0053402,-0.00973975,0.0,0 STARLINK-5307,1 55658U 23021AG  23059.66667824 -.00973975  00000-0 -53402-2 0  9999,2 55658  69.9998 119.4483 0003506 270.0157 228.0571 15.81957440  2255,6703.043,91.026,327.258,322.557,0.0
55658.0,STARLINK-5307,PAYLOAD,2023-02-28 22:00:00,15.81437923,0.0003619,69.9997,118.7322,279.4254,201.7248,-0.0055673,-0.00989311,0.0,0 STARLINK-5307,1 55658U 23021AG  23059.91667824 -.00989311  00000-0 -55673-2 0  9990,2 55658  69.9997 118.7322 0003619 279.4254 201.7248 15.81437923  1307,6704.511,91.056,328.802,323.949,0.0
55658.0,STARLINK-5307,PAYLOAD,2023-03-01 14:00:01,15.80052253,0.0003642,69.9998,116.8285,271.2025,42.4856,-0.0061657,-0.01023382,0.0,0 STARLINK-5307,1 55658U 23021AG  23060.58334491 -.01023382  00000-0 -61657-2 0  9993,2 55658  69.9998 116.8285 0003642 271.2025  42.4856 15.80052253  2390,6708.43,91.136,332.738,327.852,0.0
55658.0,STARLINK-5307,PAYLOAD,2023-03-01 22:00:00,15.79348205,0.0003766,69.9998,115.8773,279.5332,129.1593,-0.0063955,-0.01027398,0.0,0 STARLINK-5307,1 55658U 23021AG  23060.91667824 -.01027398  00000-0 -63955-2 0  9993,2 55658  69.9998 115.8773 0003766 279.5332 129.1593 15.79348205  1304,6710.423,91.177,334.815,329.761,0.0
55658.0,STARLINK-5307,PAYLOAD,2023-03-02 06:00:00,15.78656095,0.0003575,69.9997,114.9272,275.1812,227.6615,-0.0067295,-0.01063059,0.0,0 STARLINK-5307,1 55658U 23021AG  23061.25001157 -.01063059  00000-0 -67295-2 0  9997,2 55658  69.9997 114.9272 0003575 275.1812 227.6615 15.78656095  2500,6712.384,91.217,336.649,331.85,0.0
55658.0,STARLINK-5307,PAYLOAD,2023-03-02 20:00:01,15.77367411,0.0003442,69.9998,113.2679,271.531,304.074,-0.0066225,-0.00978304,0.0,0 STARLINK-5307,1 55658U 23021AG  23061.83334491 -.00978304  00000-0 -66225-2 0  9990,2 55658  69.9998 113.2679 0003442 271.5310 304.0740 15.77367411  1306,6716.04,91.291,340.217,335.593,0.0
55658.0,STARLINK-5307,PAYLOAD,2023-03-03 12:00:00,15.7595159,0.0003688,70.0002,111.3749,280.9787,117.4334,-0.0070098,-0.00973083,0.0,0 STARLINK-5307,1 55658U 23021AG  23062.50001157 -.00973083  00000-0 -70098-2 0  9997,2 55658  70.0002 111.3749 0003688 280.9787 117.4334 15.75951590  2701,6720.062,91.373,344.405,339.448,0.0
55658.0,STARLINK-5307,PAYLOAD,2023-03-03 14:00:01,15.75801134,0.0003441,69.9996,111.1384,275.9418,235.0699,-0.0073296,-0.01023244,0.0,0 STARLINK-5307,1 55658U 23021AG  23062.58334491 -.01023244  00000-0 -73296-2 0  9994,2 55658  69.9996 111.1384 0003441 275.9418 235.0699 15.75801134  1309,6720.489,91.382,344.667,340.042,0.0
